ONEWEB-0505             
1 54123U 22138L   26096.85731219  .00000079  00000+0  16418-3 0  9998
2 54123  87.9192 319.1844 0002191  91.0016 269.1368 13.19725164167405
ONEWEB-0506             
1 54124U 22138M   26096.90785717 -.00000005  00000+0 -44660-4 0  9999
2 54124  87.9190 319.1715 0002004  88.3997 271.7366 13.19726918167406
ONEWEB-0507             
1 54125U 22138N   26096.85257910  .00000120  00000+0  26711-3 0  9995
2 54125  87.9180 319.2015 0001966  84.9343 275.2014 13.19727069167444
ONEWEB-0508             
1 54126U 22138P   26096.69777289 -.00000040  00000+0 -13185-3 0  9998
2 54126  87.9185 319.2313 0002185  83.1189 277.0192 13.19723804167400
ONEWEB-0509             
1 54127U 22138Q   26096.89995249  .00000006  00000+0 -17743-4 0  9995
2 54127  87.9191 319.1732 0001856  85.4154 274.7191 13.19727238167401
ONEWEB-0510             
1 54128U 22138R   26096.92009870  .00000013  00000+0 -21166-6 0  9990
2 54128  87.9139 288.6640 0001236  89.0172 271.1103 13.20772801169879
ONEWEB-0511             
1 54129U 22138S   26096.89680936  .00000002  00000+0 -27694-4 0  9993
2 54129  87.9192 319.1781 0001783  95.2220 264.9116 13.19724663167430
ONEWEB-0512             
1 54130U 22138T   26096.88890625  .00000061  00000+0  11970-3 0  9995
2 54130  87.9180 319.1905 0002049  91.4533 268.6834 13.19723548167404
ONEWEB-0513             
1 54131U 22138U   26096.84794678 -.00000019  00000+0 -79617-4 0  9991
2 54131  87.9190 319.1518 0002391 104.1606 255.9793 13.20264396167304
ONEWEB-0514             
1 54132U 22138V   26096.90469588 -.00000054  00000+0 -16747-3 0  9991
2 54132  87.9176 319.1769 0001592  84.6783 275.4532 13.19726164167422
ONEWEB-0515             
1 54133U 22138W   26096.90748227 -.00000024  00000+0 -92061-4 0  9993
2 54133  87.9147 288.6569 0001431  60.0103 300.1173 13.20772048169899
ONEWEB-0516             
1 54134U 22138X   26096.87944383  .00000108  00000+0  23792-3 0  9996
2 54134  87.9180 319.1934 0001830  81.2031 278.9309 13.19726476167423
ONEWEB-0517             
1 54135U 22138Y   26096.85889436  .00000032  00000+0  47621-4 0  9996
2 54135  87.9181 319.1871 0001584  94.0161 266.1152 13.19726405167424
ONEWEB-0518             
1 54136U 22138Z   26096.65039633 -.00000010  00000+0 -56883-4 0  9999
2 54136  87.9181 319.2407 0001906  85.3260 274.8091 13.19726527167391
ONEWEB-0519             
1 54137U 22138AA  26096.90311088 -.00000007  00000+0 -49497-4 0  9994
2 54137  87.9189 319.1730 0001657  91.7920 268.3402 13.19727171167430
ONEWEB-0520             
1 54138U 22138AB  26096.86204879  .00000034  00000+0  53812-4 0  9993
2 54138  87.9184 319.1853 0001990  85.7695 274.3665 13.19727212167416
