[{"OBJECT_NAME":"ONEWEB-0505","OBJECT_ID":"2022-138L","EPOCH":"2026-04-06T20:34:31.773216","MEAN_MOTION":13.19725164,"ECCENTRICITY":0.0002191,"INCLINATION":87.9192,"RA_OF_ASC_NODE":319.1844,"ARG_OF_PERICENTER":91.0016,"MEAN_ANOMALY":269.1368,"EPHEMERIS_TYPE":0,"CLASSIFICATION_TYPE":"U","NORAD_CAT_ID":54123,"ELEMENT_SET_NO":999,"REV_AT_EPOCH":16740,"BSTAR":0.00016418,"MEAN_MOTION_DOT":7.9e-07,"MEAN_MOTION_DDOT":0.0},{"OBJECT_NAME":"ONEWEB-0506","OBJECT_ID":"2022-138M","EPOCH":"2026-04-06T21:47:18.859488","MEAN_MOTION":13.19726918,"ECCENTRICITY":0.0002004,"INCLINATION":87.919,"RA_OF_ASC_NODE":319.1715,"ARG_OF_PERICENTER":88.3997,"MEAN_ANOMALY":271.7366,"EPHEMERIS_TYPE":0,"CLASSIFICATION_TYPE":"U","NORAD_CAT_ID":54124,"ELEMENT_SET_NO":999,"REV_AT_EPOCH":16740,"BSTAR":-4.466e-05,"MEAN_MOTION_DOT":-5e-08,"MEAN_MOTION_DDOT":0.0},{"OBJECT_NAME":"ONEWEB-0507","OBJECT_ID":"2022-138N","EPOCH":"2026-04-06T20:27:42.834240","MEAN_MOTION":13.19727069,"ECCENTRICITY":0.0001966,"INCLINATION":87.918,"RA_OF_ASC_NODE":319.2015,"ARG_OF_PERICENTER":84.9343,"MEAN_ANOMALY":275.2014,"EPHEMERIS_TYPE":0,"CLASSIFICATION_TYPE":"U","NORAD_CAT_ID":54125,"ELEMENT_SET_NO":999,"REV_AT_EPOCH":16744,"BSTAR":0.00026711000000000004,"MEAN_MOTION_DOT":1.2e-06,"MEAN_MOTION_DDOT":0.0},{"OBJECT_NAME":"ONEWEB-0508","OBJECT_ID":"2022-138P","EPOCH":"2026-04-06T16:44:47.577696","MEAN_MOTION":13.19723804,"ECCENTRICITY":0.0002185,"INCLINATION":87.9185,"RA_OF_ASC_NODE":319.2313,"ARG_OF_PERICENTER":83.1189,"MEAN_ANOMALY":277.0192,"EPHEMERIS_TYPE":0,"CLASSIFICATION_TYPE":"U","NORAD_CAT_ID":54126,"ELEMENT_SET_NO":999,"REV_AT_EPOCH":16740,"BSTAR":-0.00013185,"MEAN_MOTION_DOT":-4e-07,"MEAN_MOTION_DDOT":0.0},{"OBJECT_NAME":"ONEWEB-0509","OBJECT_ID":"2022-138Q","EPOCH":"2026-04-06T21:35:55.895136","MEAN_MOTION":13.19727238,"ECCENTRICITY":0.0001856,"INCLINATION":87.9191,"RA_OF_ASC_NODE":319.1732,"ARG_OF_PERICENTER":85.4154,"MEAN_ANOMALY":274.7191,"EPHEMERIS_TYPE":0,"CLASSIFICATION_TYPE":"U","NORAD_CAT_ID":54127,"ELEMENT_SET_NO":999,"REV_AT_EPOCH":16740,"BSTAR":-1.7743000000000003e-05,"MEAN_MOTION_DOT":6e-08,"MEAN_MOTION_DDOT":0.0},{"OBJECT_NAME":"ONEWEB-0510","OBJECT_ID":"2022-138R","EPOCH":"2026-04-06T22:04:56.527680","MEAN_MOTION":13.20772801,"ECCENTRICITY":0.0001236,"INCLINATION":87.9139,"RA_OF_ASC_NODE":288.664,"ARG_OF_PERICENTER":89.0172,"MEAN_ANOMALY":271.1103,"EPHEMERIS_TYPE":0,"CLASSIFICATION_TYPE":"U","NORAD_CAT_ID":54128,"ELEMENT_SET_NO":999,"REV_AT_EPOCH":16987,"BSTAR":-2.1165999999999998e-07,"MEAN_MOTION_DOT":1.3e-07,"MEAN_MOTION_DDOT":0.0},{"OBJECT_NAME":"ONEWEB-0511","OBJECT_ID":"2022-138S","EPOCH":"2026-04-06T21:31:24.328704","MEAN_MOTION":13.19724663,"ECCENTRICITY":0.0001783,"INCLINATION":87.9192,"RA_OF_ASC_NODE":319.1781,"ARG_OF_PERICENTER":95.222,"MEAN_ANOMALY":264.9116,"EPHEMERIS_TYPE":0,"CLASSIFICATION_TYPE":"U","NORAD_CAT_ID":54129,"ELEMENT_SET_NO":999,"REV_AT_EPOCH":16743,"BSTAR":-2.7694000000000003e-05,"MEAN_MOTION_DOT":2e-08,"MEAN_MOTION_DDOT":0.0},{"OBJECT_NAME":"ONEWEB-0512","OBJECT_ID":"2022-138T","EPOCH":"2026-04-06T21:20:01.500000","MEAN_MOTION":13.19723548,"ECCENTRICITY":0.0002049,"INCLINATION":87.918,"RA_OF_ASC_NODE":319.1905,"ARG_OF_PERICENTER":91.4533,"MEAN_ANOMALY":268.6834,"EPHEMERIS_TYPE":0,"CLASSIFICATION_TYPE":"U","NORAD_CAT_ID":54130,"ELEMENT_SET_NO":999,"REV_AT_EPOCH":16740,"BSTAR":0.00011970000000000001,"MEAN_MOTION_DOT":6.1e-07,"MEAN_MOTION_DDOT":0.0},{"OBJECT_NAME":"ONEWEB-0513","OBJECT_ID":"2022-138U","EPOCH":"2026-04-06T20:21:02.601792","MEAN_MOTION":13.20264396,"ECCENTRICITY":0.0002391,"INCLINATION":87.919,"RA_OF_ASC_NODE":319.1518,"ARG_OF_PERICENTER":104.1606,"MEAN_ANOMALY":255.9793,"EPHEMERIS_TYPE":0,"CLASSIFICATION_TYPE":"U","NORAD_CAT_ID":54131,"ELEMENT_SET_NO":999,"REV_AT_EPOCH":16730,"BSTAR":-7.961700000000001e-05,"MEAN_MOTION_DOT":-1.9e-07,"MEAN_MOTION_DDOT":0.0},{"OBJECT_NAME":"ONEWEB-0514","OBJECT_ID":"2022-138V","EPOCH":"2026-04-06T21:42:45.724032","MEAN_MOTION":13.19726164,"ECCENTRICITY":0.0001592,"INCLINATION":87.9176,"RA_OF_ASC_NODE":319.1769,"ARG_OF_PERICENTER":84.6783,"MEAN_ANOMALY":275.4532,"EPHEMERIS_TYPE":0,"CLASSIFICATION_TYPE":"U","NORAD_CAT_ID":54132,"ELEMENT_SET_NO":999,"REV_AT_EPOCH":16742,"BSTAR":-0.00016747000000000002,"MEAN_MOTION_DOT":-5.4e-07,"MEAN_MOTION_DDOT":0.0},{"OBJECT_NAME":"ONEWEB-0515","OBJECT_ID":"2022-138W","EPOCH":"2026-04-06T21:46:46.468128","MEAN_MOTION":13.20772048,"ECCENTRICITY":0.0001431,"INCLINATION":87.9147,"RA_OF_ASC_NODE":288.6569,"ARG_OF_PERICENTER":60.0103,"MEAN_ANOMALY":300.1173,"EPHEMERIS_TYPE":0,"CLASSIFICATION_TYPE":"U","NORAD_CAT_ID":54133,"ELEMENT_SET_NO":999,"REV_AT_EPOCH":16989,"BSTAR":-9.206100000000001e-05,"MEAN_MOTION_DOT":-2.4e-07,"MEAN_MOTION_DDOT":0.0},{"OBJECT_NAME":"ONEWEB-0516","OBJECT_ID":"2022-138X","EPOCH":"2026-04-06T21:06:23.946912","MEAN_MOTION":13.19726476,"ECCENTRICITY":0.000183,"INCLINATION":87.918,"RA_OF_ASC_NODE":319.1934,"ARG_OF_PERICENTER":81.2031,"MEAN_ANOMALY":278.9309,"EPHEMERIS_TYPE":0,"CLASSIFICATION_TYPE":"U","NORAD_CAT_ID":54134,"ELEMENT_SET_NO":999,"REV_AT_EPOCH":16742,"BSTAR":0.00023792,"MEAN_MOTION_DOT":1.08e-06,"MEAN_MOTION_DDOT":0.0},{"OBJECT_NAME":"ONEWEB-0517","OBJECT_ID":"2022-138Y","EPOCH":"2026-04-06T20:36:48.472704","MEAN_MOTION":13.19726405,"ECCENTRICITY":0.0001584,"INCLINATION":87.9181,"RA_OF_ASC_NODE":319.1871,"ARG_OF_PERICENTER":94.0161,"MEAN_ANOMALY":266.1152,"EPHEMERIS_TYPE":0,"CLASSIFICATION_TYPE":"U","NORAD_CAT_ID":54135,"ELEMENT_SET_NO":999,"REV_AT_EPOCH":16742,"BSTAR":4.7621000000000004e-05,"MEAN_MOTION_DOT":3.2e-07,"MEAN_MOTION_DDOT":0.0},{"OBJECT_NAME":"ONEWEB-0518","OBJECT_ID":"2022-138Z","EPOCH":"2026-04-06T15:36:34.242912","MEAN_MOTION":13.19726527,"ECCENTRICITY":0.0001906,"INCLINATION":87.9181,"RA_OF_ASC_NODE":319.2407,"ARG_OF_PERICENTER":85.326,"MEAN_ANOMALY":274.8091,"EPHEMERIS_TYPE":0,"CLASSIFICATION_TYPE":"U","NORAD_CAT_ID":54136,"ELEMENT_SET_NO":999,"REV_AT_EPOCH":16739,"BSTAR":-5.6883e-05,"MEAN_MOTION_DOT":-1e-07,"MEAN_MOTION_DDOT":0.0},{"OBJECT_NAME":"ONEWEB-0519","OBJECT_ID":"2022-138AA","EPOCH":"2026-04-06T21:40:28.780032","MEAN_MOTION":13.19727171,"ECCENTRICITY":0.0001657,"INCLINATION":87.9189,"RA_OF_ASC_NODE":319.173,"ARG_OF_PERICENTER":91.792,"MEAN_ANOMALY":268.3402,"EPHEMERIS_TYPE":0,"CLASSIFICATION_TYPE":"U","NORAD_CAT_ID":54137,"ELEMENT_SET_NO":999,"REV_AT_EPOCH":16743,"BSTAR":-4.9497000000000004e-05,"MEAN_MOTION_DOT":-7e-08,"MEAN_MOTION_DDOT":0.0},{"OBJECT_NAME":"ONEWEB-0520","OBJECT_ID":"2022-138AB","EPOCH":"2026-04-06T20:41:21.015456","MEAN_MOTION":13.19727212,"ECCENTRICITY":0.000199,"INCLINATION":87.9184,"RA_OF_ASC_NODE":319.1853,"ARG_OF_PERICENTER":85.7695,"MEAN_ANOMALY":274.3665,"EPHEMERIS_TYPE":0,"CLASSIFICATION_TYPE":"U","NORAD_CAT_ID":54138,"ELEMENT_SET_NO":999,"REV_AT_EPOCH":16741,"BSTAR":5.3812000000000006e-05,"MEAN_MOTION_DOT":3.4e-07,"MEAN_MOTION_DDOT":0.0}]